{
  "type": "FeatureCollection",
  "name": "jersey_parishes",
  "note": "Approximate boundaries. Replace with precise OSM Overpass export for production.",
  "features": [
    {
      "type": "Feature",
      "properties": { "name": "St Helier", "key": "SH" },
      "geometry": {
        "type": "Polygon",
        "coordinates": [[
          [-2.1350, 49.1720], [-2.1350, 49.1980], [-2.1150, 49.2030],
          [-2.0950, 49.2000], [-2.0900, 49.1900], [-2.0950, 49.1720],
          [-2.1350, 49.1720]
        ]]
      }
    },
    {
      "type": "Feature",
      "properties": { "name": "St Clement", "key": "SC" },
      "geometry": {
        "type": "Polygon",
        "coordinates": [[
          [-2.0950, 49.1720], [-2.0950, 49.1900], [-2.0900, 49.2000],
          [-2.0650, 49.1980], [-2.0450, 49.1900], [-2.0450, 49.1750],
          [-2.0950, 49.1720]
        ]]
      }
    },
    {
      "type": "Feature",
      "properties": { "name": "St Saviour", "key": "SS" },
      "geometry": {
        "type": "Polygon",
        "coordinates": [[
          [-2.1150, 49.2030], [-2.1050, 49.2200], [-2.0800, 49.2180],
          [-2.0650, 49.2050], [-2.0650, 49.1980], [-2.0900, 49.2000],
          [-2.1150, 49.2030]
        ]]
      }
    },
    {
      "type": "Feature",
      "properties": { "name": "Grouville", "key": "GR" },
      "geometry": {
        "type": "Polygon",
        "coordinates": [[
          [-2.0650, 49.1980], [-2.0650, 49.2050], [-2.0500, 49.2150],
          [-2.0200, 49.2100], [-2.0150, 49.1850], [-2.0450, 49.1750],
          [-2.0450, 49.1900], [-2.0650, 49.1980]
        ]]
      }
    },
    {
      "type": "Feature",
      "properties": { "name": "St Martin", "key": "SM" },
      "geometry": {
        "type": "Polygon",
        "coordinates": [[
          [-2.0650, 49.2050], [-2.0800, 49.2180], [-2.0700, 49.2320],
          [-2.0400, 49.2350], [-2.0200, 49.2250], [-2.0200, 49.2100],
          [-2.0500, 49.2150], [-2.0650, 49.2050]
        ]]
      }
    },
    {
      "type": "Feature",
      "properties": { "name": "Trinity", "key": "TR" },
      "geometry": {
        "type": "Polygon",
        "coordinates": [[
          [-2.1050, 49.2200], [-2.1100, 49.2420], [-2.0800, 49.2480],
          [-2.0600, 49.2420], [-2.0700, 49.2320], [-2.0800, 49.2180],
          [-2.1050, 49.2200]
        ]]
      }
    },
    {
      "type": "Feature",
      "properties": { "name": "St John", "key": "SJ" },
      "geometry": {
        "type": "Polygon",
        "coordinates": [[
          [-2.1400, 49.2250], [-2.1350, 49.2500], [-2.1100, 49.2480],
          [-2.1100, 49.2420], [-2.1050, 49.2200], [-2.1200, 49.2150],
          [-2.1400, 49.2250]
        ]]
      }
    },
    {
      "type": "Feature",
      "properties": { "name": "St Mary", "key": "SMa" },
      "geometry": {
        "type": "Polygon",
        "coordinates": [[
          [-2.1600, 49.2250], [-2.1550, 49.2480], [-2.1350, 49.2500],
          [-2.1400, 49.2250], [-2.1600, 49.2250]
        ]]
      }
    },
    {
      "type": "Feature",
      "properties": { "name": "St Lawrence", "key": "SL" },
      "geometry": {
        "type": "Polygon",
        "coordinates": [[
          [-2.1700, 49.1950], [-2.1700, 49.2250], [-2.1600, 49.2250],
          [-2.1400, 49.2250], [-2.1200, 49.2150], [-2.1050, 49.2200],
          [-2.1150, 49.2030], [-2.1350, 49.1980], [-2.1700, 49.1950]
        ]]
      }
    },
    {
      "type": "Feature",
      "properties": { "name": "St Peter", "key": "SP" },
      "geometry": {
        "type": "Polygon",
        "coordinates": [[
          [-2.1950, 49.1950], [-2.1950, 49.2200], [-2.1700, 49.2250],
          [-2.1700, 49.1950], [-2.1950, 49.1950]
        ]]
      }
    },
    {
      "type": "Feature",
      "properties": { "name": "St Brelade", "key": "SB" },
      "geometry": {
        "type": "Polygon",
        "coordinates": [[
          [-2.2200, 49.1720], [-2.2200, 49.2000], [-2.1950, 49.2000],
          [-2.1950, 49.1950], [-2.1700, 49.1950], [-2.1350, 49.1980],
          [-2.1350, 49.1720], [-2.2200, 49.1720]
        ]]
      }
    },
    {
      "type": "Feature",
      "properties": { "name": "St Ouen", "key": "SO" },
      "geometry": {
        "type": "Polygon",
        "coordinates": [[
          [-2.2500, 49.2000], [-2.2500, 49.2450], [-2.2100, 49.2480],
          [-2.1950, 49.2400], [-2.1950, 49.2200], [-2.1700, 49.2250],
          [-2.1950, 49.2000], [-2.2200, 49.2000], [-2.2500, 49.2000]
        ]]
      }
    }
  ]
}
